{
    "CCSDS_OMM_VERS": "3.0",
    "COMMENT": "GENERATED VIA SPACE-TRACK.ORG API",
    "CREATION_DATE": "2025-05-22T17:14:14",
    "ORIGINATOR": "18 SPCS",
    "OBJECT_NAME": "BEIDOU 3M7",
    "OBJECT_ID": "2018-029A",
    "CENTER_NAME": "EARTH",
    "REF_FRAME": "TEME",
    "TIME_SYSTEM": "UTC",
    "MEAN_ELEMENT_THEORY": "SGP4",
    "EPOCH": "2025-05-22T01:05:55.163904",
    "MEAN_MOTION": "1.86232474",
    "ECCENTRICITY": "0.00005020",
    "INCLINATION": "54.5461",
    "RA_OF_ASC_NODE": "313.5948",
    "ARG_OF_PERICENTER": "119.2022",
    "MEAN_ANOMALY": "240.7988",
    "EPHEMERIS_TYPE": "0",
    "CLASSIFICATION_TYPE": "U",
    "NORAD_CAT_ID": "43245",
    "ELEMENT_SET_NO": "999",
    "REV_AT_EPOCH": "4861",
    "BSTAR": "0.00000000000000",
    "MEAN_MOTION_DOT": "-0.00000051",
    "MEAN_MOTION_DDOT": "0.0000000000000",
    "SEMIMAJOR_AXIS": "27906.041",
    "PERIOD": "773.227",
    "APOAPSIS": "21529.307",
    "PERIAPSIS": "21526.505",
    "OBJECT_TYPE": "PAYLOAD",
    "RCS_SIZE": "LARGE",
    "COUNTRY_CODE": "PRC",
    "LAUNCH_DATE": "2018-03-29",
    "SITE": "XSC",
    "DECAY_DATE": null,
    "FILE": "4736220",
    "GP_ID": "288144443",
    "TLE_LINE0": "0 BEIDOU 3M7",
    "TLE_LINE1": "1 43245U 18029A   25142.04577736 -.00000051  00000-0  00000-0 0  9998",
    "TLE_LINE2": "2 43245  54.5461 313.5948 0000502 119.2022 240.7988  1.86232474 48616"
}